NORAD_CAT_ID,OBJECT_NAME,OBJECT_TYPE,EPOCH,MEAN_MOTION,ECCENTRICITY,INCLINATION,RA_OF_ASC_NODE,ARG_OF_PERICENTER,MEAN_ANOMALY,BSTAR,MEAN_MOTION_DOT,MEAN_MOTION_DDOT,TLE_LINE0,TLE_LINE1,TLE_LINE2,SEMIMAJOR_AXIS,PERIOD,APOGEE,PERIGEE,DECAYED
53247.0,STARLINK-4061,PAYLOAD,2023-05-05 08:17:24,15.08836161,8.67e-05,53.2151,185.0992,89.4315,270.6777,0.00010366,1.362e-05,0.0,0 STARLINK-4061,1 53247U 22086F   23125.34542738  .00001362  00000-0  10366-3 0  9999,2 53247  53.2151 185.0992 0000867  89.4315 270.6777 15.08836161 43906,6917.892,95.438,540.357,539.157,0.0
53247.0,STARLINK-4061,PAYLOAD,2023-05-05 21:00:30,15.08836875,0.0001025,53.2142,182.7187,76.9231,283.1875,9.6104e-05,1.242e-05,0.0,0 STARLINK-4061,1 53247U 22086F   23125.87534899  .00001242  00000-0  96104-4 0  9998,2 53247  53.2142 182.7187 0001025  76.9231 283.1875 15.08836875 44485,6917.89,95.438,540.464,539.046,0.0
53247.0,STARLINK-4061,PAYLOAD,2023-05-06 11:18:58,15.08844556,0.0001073,53.2139,180.0422,77.2453,282.8659,0.00018376,2.638e-05,0.0,0 STARLINK-4061,1 53247U 22086F   23126.47150736  .00002638  00000-0  18376-3 0  9993,2 53247  53.2139 180.0422 0001073  77.2453 282.8659 15.08844556 44578,6917.866,95.437,540.474,538.989,0.0
53247.0,STARLINK-4061,PAYLOAD,2023-05-07 00:02:03,15.08840336,0.0001063,53.2142,177.6649,75.4297,284.6812,0.00016263,2.301e-05,0.0,0 STARLINK-4061,1 53247U 22086F   23127.00142982  .00002301  00000-0  16263-3 0  9997,2 53247  53.2142 177.6649 0001063  75.4297 284.6812 15.08840336 44157,6917.879,95.438,540.48,539.009,0.0
53247.0,STARLINK-4061,PAYLOAD,2023-05-07 09:34:22,15.08841853,0.0001181,53.2144,175.8807,72.5803,287.5318,0.00014432,2.01e-05,0.0,0 STARLINK-4061,1 53247U 22086F   23127.39886999  .00002010  00000-0  14432-3 0  9995,2 53247  53.2144 175.8807 0001181  72.5803 287.5318 15.08841853 44717,6917.875,95.437,540.557,538.923,0.0
53247.0,STARLINK-4061,PAYLOAD,2023-05-07 20:42:04,15.08843777,0.0001114,53.2147,173.799,75.83,284.2816,0.00012333,1.676e-05,0.0,0 STARLINK-4061,1 53247U 22086F   23127.86254851  .00001676  00000-0  12333-3 0  9998,2 53247  53.2147 173.7990 0001114  75.8300 284.2816 15.08843777 44785,6917.869,95.437,540.504,538.963,0.0
53247.0,STARLINK-4061,PAYLOAD,2023-05-08 11:00:32,15.08843465,8.5e-05,53.215,171.1217,75.6928,284.4159,0.0002076,3.018e-05,0.0,0 STARLINK-4061,1 53247U 22086F   23128.45870743  .00003018  00000-0  20760-3 0  9993,2 53247  53.2150 171.1217 0000850  75.6928 284.4159 15.08843465 44374,6917.87,95.437,540.323,539.147,0.0
53247.0,STARLINK-4061,PAYLOAD,2023-05-09 09:15:56,15.08842146,0.0001036,53.216,166.9586,81.0893,279.0216,9.4966e-05,1.224e-05,0.0,0 STARLINK-4061,1 53247U 22086F   23129.38606633  .00001224  00000-0  94966-4 0  9998,2 53247  53.2160 166.9586 0001036  81.0893 279.0216 15.08842146 45016,6917.874,95.437,540.456,539.022,0.0
53247.0,STARLINK-4061,PAYLOAD,2023-05-10 09:06:43,15.08841799,0.0001143,53.2158,162.4976,87.7293,272.383,5.6102e-05,6.05e-06,0.0,0 STARLINK-4061,1 53247U 22086F   23130.37966778  .00000605  00000-0  56102-4 0  9990,2 53247  53.2158 162.4976 0001143  87.7293 272.3830 15.08841799 45160,6917.875,95.437,540.531,538.949,0.0
53247.0,STARLINK-4061,PAYLOAD,2023-05-10 18:39:02,15.08840339,0.0001142,53.2156,160.7137,85.2861,274.8261,4.5807e-05,4.41e-06,0.0,0 STARLINK-4061,1 53247U 22086F   23130.77710894  .00000441  00000-0  45807-4 0  9998,2 53247  53.2156 160.7137 0001142  85.2861 274.8261 15.08840339 44726,6917.879,95.438,540.534,538.954,0.0
53247.0,STARLINK-4061,PAYLOAD,2023-05-11 07:22:07,15.08838393,0.000117,53.2159,158.3356,85.1863,274.9263,5.3238e-05,5.6e-06,0.0,0 STARLINK-4061,1 53247U 22086F   23131.30703073  .00000560  00000-0  53238-4 0  9998,2 53247  53.2159 158.3356 0001170  85.1863 274.9263 15.08838393 45302,6917.885,95.438,540.56,538.941,0.0
53247.0,STARLINK-4061,PAYLOAD,2023-05-12 18:20:36,15.08838517,0.000115,53.2157,151.7931,84.9886,275.1237,6.9235e-05,8.14e-06,0.0,0 STARLINK-4061,1 53247U 22086F   23132.76431397  .00000814  00000-0  69235-4 0  9992,2 53247  53.2157 151.7931 0001150  84.9886 275.1237 15.08838517 45027,6917.885,95.438,540.545,538.954,0.0
53247.0,STARLINK-4061,PAYLOAD,2023-05-13 08:39:04,15.08843928,0.0001116,53.2153,149.1159,84.2187,275.8933,0.00014257,1.982e-05,0.0,0 STARLINK-4061,1 53247U 22086F   23133.36046884  .00001982  00000-0  14257-3 0  9992,2 53247  53.2153 149.1159 0001116  84.2187 275.8933 15.08843928 45612,6917.868,95.437,540.505,538.961,0.0
53247.0,STARLINK-4061,PAYLOAD,2023-05-13 18:11:23,15.08839668,0.0001103,53.2154,147.3318,83.1663,276.9455,0.00010551,1.392e-05,0.0,0 STARLINK-4061,1 53247U 22086F   23133.75791208  .00001392  00000-0  10551-3 0  9990,2 53247  53.2154 147.3318 0001103  83.1663 276.9455 15.08839668 45676,6917.881,95.438,540.509,538.983,0.0
53247.0,STARLINK-4061,PAYLOAD,2023-05-14 06:54:29,15.08835922,0.000113,53.2154,144.9529,84.4585,275.6536,5.1834e-05,5.37e-06,0.0,0 STARLINK-4061,1 53247U 22086F   23134.28783713  .00000537  00000-0  51834-4 0  9991,2 53247  53.2154 144.9529 0001130  84.4585 275.6536 15.08835922 45259,6917.893,95.438,540.54,538.976,0.0
53247.0,STARLINK-4061,PAYLOAD,2023-05-14 08:29:52,15.08837904,0.0001197,53.2155,144.6554,84.078,276.0348,7.1417e-05,8.49e-06,0.0,0 STARLINK-4061,1 53247U 22086F   23134.35407557  .00000849  00000-0  71417-4 0  9993,2 53247  53.2155 144.6554 0001197  84.0780 276.0348 15.08837904 45765,6917.887,95.438,540.58,538.924,0.0
53247.0,STARLINK-4061,PAYLOAD,2023-05-14 18:02:10,15.08839373,0.0001207,53.2155,142.8714,83.3898,276.7231,6.1045e-05,6.84e-06,0.0,0 STARLINK-4061,1 53247U 22086F   23134.75151494  .00000684  00000-0  61045-4 0  9996,2 53247  53.2155 142.8714 0001207  83.3898 276.7231 15.08839373 45824,6917.882,95.438,540.582,538.912,0.0
53247.0,STARLINK-4061,PAYLOAD,2023-05-15 06:45:15,15.08843033,0.0001231,53.2154,140.4925,83.8208,276.2924,2.139e-05,5.3e-07,0.0,0 STARLINK-4061,1 53247U 22086F   23135.28143287  .00000053  00000-0  21390-4 0  9995,2 53247  53.2154 140.4925 0001231  83.8208 276.2924 15.08843033 45404,6917.871,95.437,540.588,538.885,0.0
53247.0,STARLINK-4061,PAYLOAD,2023-05-15 17:52:57,15.08840775,0.0001244,53.2158,138.4109,84.0372,276.0761,3.9462e-05,3.4e-06,0.0,0 STARLINK-4061,1 53247U 22086F   23135.74511315  .00000340  00000-0  39462-4 0  9995,2 53247  53.2158 138.4109 0001244  84.0372 276.0761 15.08840775 45977,6917.878,95.438,540.604,538.882,0.0
53247.0,STARLINK-4061,PAYLOAD,2023-05-16 06:36:02,15.08839167,0.0001243,53.2156,136.0315,86.3341,273.7793,7.6863e-05,9.36e-06,0.0,0 STARLINK-4061,1 53247U 22086F   23136.27503367  .00000936  00000-0  76863-4 0  9999,2 53247  53.2156 136.0315 0001243  86.3341 273.7793 15.08839167 46050,6917.883,95.438,540.608,538.888,0.0
53247.0,STARLINK-4061,PAYLOAD,2023-05-17 06:26:51,15.08821709,0.0001236,53.2162,131.5713,92.3281,267.7853,-0.00010899,-2.021e-05,0.0,0 STARLINK-4061,1 53247U 22086F   23137.26864984 -.00002021  00000-0 -10899-3 0  9999,2 53247  53.2162 131.5713 0001236  92.3281 267.7853 15.08821709 45705,6917.936,95.439,540.656,538.946,0.0
53247.0,STARLINK-4061,PAYLOAD,2023-05-17 15:59:10,15.08817114,0.0001251,53.2166,129.7852,91.0137,269.0999,-0.00014072,-2.525e-05,0.0,0 STARLINK-4061,1 53247U 22086F   23137.66609858 -.00002525  00000-0 -14072-3 0  9996,2 53247  53.2166 129.7852 0001251  91.0137 269.0999 15.08817114 46268,6917.95,95.439,540.681,538.95,0.0
53247.0,STARLINK-4061,PAYLOAD,2023-05-18 03:06:52,15.08825685,0.0001241,53.2163,127.7032,90.0929,270.0205,-4.1398e-05,-9.46e-06,0.0,0 STARLINK-4061,1 53247U 22086F   23138.12977369 -.00000946  00000-0 -41398-4 0  9990,2 53247  53.2163 127.7032 0001241  90.0929 270.0205 15.08825685 45836,6917.924,95.438,540.648,538.931,0.0
53247.0,STARLINK-4061,PAYLOAD,2023-05-18 06:17:38,15.08827844,0.0001174,53.216,127.1103,90.3091,269.8036,-1.9612e-05,-6e-06,0.0,0 STARLINK-4061,1 53247U 22086F   23138.26225265 -.00000600  00000-0 -19612-4 0  9997,2 53247  53.2160 127.1103 0001174  90.3091 269.8036 15.08827844 46359,6917.918,95.438,540.595,538.97,0.0
53247.0,STARLINK-4061,PAYLOAD,2023-05-18 15:49:57,15.08830065,0.000113,53.216,125.3259,87.4673,272.6448,-1.2147e-05,-4.81e-06,0.0,0 STARLINK-4061,1 53247U 22086F   23138.65969398 -.00000481  00000-0 -12147-4 0  9995,2 53247  53.2160 125.3259 0001130  87.4673 272.6448 15.08830065 46411,6917.911,95.438,540.557,538.994,0.0
53247.0,STARLINK-4061,PAYLOAD,2023-05-19 06:08:26,15.08824161,0.0001191,53.2159,122.65,91.8827,268.2301,0.00019232,2.773e-05,0.0,0 STARLINK-4061,1 53247U 22086F   23139.25585733  .00002773  00000-0  19232-3 0  9994,2 53247  53.2159 122.6500 0001191  91.8827 268.2301 15.08824161 46009,6917.929,95.439,540.618,538.97,0.0
53247.0,STARLINK-4061,PAYLOAD,2023-05-19 15:40:44,15.08828517,0.0001202,53.2161,120.8656,90.6339,269.4791,0.00022615,3.312e-05,0.0,0 STARLINK-4061,1 53247U 22086F   23139.65329782  .00003312  00000-0  22615-3 0  9997,2 53247  53.2161 120.8656 0001202  90.6339 269.4791 15.08828517 46568,6917.915,95.438,540.612,538.949,0.0
53247.0,STARLINK-4061,PAYLOAD,2023-05-20 04:23:49,15.08843789,0.0001244,53.2159,118.4873,93.0886,267.0248,0.00020025,2.901e-05,0.0,0 STARLINK-4061,1 53247U 22086F   23140.18321249  .00002901  00000-0  20025-3 0  9993,2 53247  53.2159 118.4873 0001244  93.0886 267.0248 15.08843789 46142,6917.869,95.437,540.594,538.873,0.0
53247.0,STARLINK-4061,PAYLOAD,2023-05-20 15:31:30,15.0885437,0.000126,53.2162,116.4055,91.1673,268.9463,0.00026708,3.967e-05,0.0,0 STARLINK-4061,1 53247U 22086F   23140.64688493  .00003967  00000-0  26708-3 0  9998,2 53247  53.2162 116.4055 0001260  91.1673 268.9463 15.08854370 46212,6917.836,95.437,540.573,538.83,0.0
53247.0,STARLINK-4061,PAYLOAD,2023-05-21 07:25:21,15.08870185,0.0001304,53.2149,113.4312,90.3161,269.7981,0.00042374,6.468e-05,0.0,0 STARLINK-4061,1 53247U 22086F   23141.30927481  .00006468  00000-0  42374-3 0  9991,2 53247  53.2149 113.4312 0001304  90.3161 269.7981 15.08870185 46814,6917.788,95.436,540.555,538.751,0.0
